{
  "norad_id": 53999,
  "name": "STARLINK-5079",
  "history": [
    {
      "epoch": "2026-03-28T19:59:11.790240Z",
      "apogee_km": 540.613272313466,
      "perigee_km": 538.9391373178996,
      "latitude_deg": 2.2721936622238587e-05,
      "longitude_deg": 2.054734154087967,
      "height_km": 540.570088969156,
      "semi_major_axis_km": 6917.913204815683,
      "eccentricity": 0.000121,
      "inclination_deg": 53.217,
      "raan_deg": 128.1014,
      "arg_perigee_deg": 83.0014,
      "mean_anomaly_deg": 277.1116,
      "mean_motion_rev_day": 15.08829264
    },
    {
      "epoch": "2026-03-29T02:20:44.437920Z",
      "apogee_km": 540.8777913792674,
      "perigee_km": 538.8369830350421,
      "latitude_deg": 1.4349352028589368e-05,
      "longitude_deg": -94.78326176264892,
      "height_km": 540.8168790460153,
      "semi_major_axis_km": 6917.994387207154,
      "eccentricity": 0.0001475,
      "inclination_deg": 53.2174,
      "raan_deg": 126.9106,
      "arg_perigee_deg": 93.5937,
      "mean_anomaly_deg": 266.5224,
      "mean_motion_rev_day": 15.08802705
    },
    {
      "epoch": "2026-03-30T02:11:31.263648Z",
      "apogee_km": 540.4824238820702,
      "perigee_km": 539.0407338182386,
      "latitude_deg": 3.919849200806804e-05,
      "longitude_deg": -97.91798432598867,
      "height_km": 540.6517363225234,
      "semi_major_axis_km": 6917.898578850154,
      "eccentricity": 0.0001042,
      "inclination_deg": 53.2163,
      "raan_deg": 122.4503,
      "arg_perigee_deg": 89.5344,
      "mean_anomaly_deg": 270.5768,
      "mean_motion_rev_day": 15.08834049
    },
    {
      "epoch": "2026-03-30T05:22:17.466528Z",
      "apogee_km": 540.4754494221679,
      "perigee_km": 539.0343141853509,
      "latitude_deg": -3.659648415011097e-05,
      "longitude_deg": -146.33572998840194,
      "height_km": 540.6392249505435,
      "semi_major_axis_km": 6917.891881803759,
      "eccentricity": 0.00010416,
      "inclination_deg": 53.2162,
      "raan_deg": 121.8557,
      "arg_perigee_deg": 89.0717,
      "mean_anomaly_deg": 271.0394,
      "mean_motion_rev_day": 15.0883624
    },
    {
      "epoch": "2026-03-30T11:43:49.906848Z",
      "apogee_km": 540.4683918928777,
      "perigee_km": 539.0094118651714,
      "latitude_deg": -6.565671747500902e-05,
      "longitude_deg": 116.82862539955923,
      "height_km": 540.6012463895049,
      "semi_major_axis_km": 6917.875901879024,
      "eccentricity": 0.00010545,
      "inclination_deg": 53.2161,
      "raan_deg": 120.6664,
      "arg_perigee_deg": 87.3559,
      "mean_anomaly_deg": 272.7553,
      "mean_motion_rev_day": 15.08841468
    },
    {
      "epoch": "2026-03-31T11:34:36.208128Z",
      "apogee_km": 540.4276198278712,
      "perigee_km": 538.9747354538031,
      "latitude_deg": 4.542533309424503e-06,
      "longitude_deg": 113.69582844316906,
      "height_km": 540.5314988087963,
      "semi_major_axis_km": 6917.838177640837,
      "eccentricity": 0.00010501,
      "inclination_deg": 53.2161,
      "raan_deg": 116.2058,
      "arg_perigee_deg": 84.8125,
      "mean_anomaly_deg": 275.2987,
      "mean_motion_rev_day": 15.0885381
    },
    {
      "epoch": "2026-04-01T17:46:57.403488Z",
      "apogee_km": 540.5775516610911,
      "perigee_km": 538.9725960599562,
      "latitude_deg": 4.0558246041622664e-05,
      "longitude_deg": 13.715631140105101,
      "height_km": 540.3072952078314,
      "semi_major_axis_km": 6917.912073860523,
      "eccentricity": 0.000116,
      "inclination_deg": 53.2152,
      "raan_deg": 110.5544,
      "arg_perigee_deg": 63.0501,
      "mean_anomaly_deg": 297.061,
      "mean_motion_rev_day": 15.08829634
    },
    {
      "epoch": "2026-04-02T08:05:25.887552Z",
      "apogee_km": 540.5341759775647,
      "perigee_km": 539.0054569292652,
      "latitude_deg": 2.497017317161757e-05,
      "longitude_deg": 155.835531427095,
      "height_km": 540.5005645359121,
      "semi_major_axis_km": 6917.906816453415,
      "eccentricity": 0.00011049,
      "inclination_deg": 53.2163,
      "raan_deg": 107.8806,
      "arg_perigee_deg": 77.5166,
      "mean_anomaly_deg": 282.595,
      "mean_motion_rev_day": 15.08831354
    },
    {
      "epoch": "2026-04-03T07:56:12.333984Z",
      "apogee_km": 540.5285812442689,
      "perigee_km": 538.9388545532947,
      "latitude_deg": 3.5510688029516245e-05,
      "longitude_deg": 152.7015828251811,
      "height_km": 540.4311113162042,
      "semi_major_axis_km": 6917.870717898782,
      "eccentricity": 0.0001149,
      "inclination_deg": 53.2162,
      "raan_deg": 103.4195,
      "arg_perigee_deg": 75.5368,
      "mean_anomaly_deg": 284.5752,
      "mean_motion_rev_day": 15.08843164
    },
    {
      "epoch": "2026-04-04T07:46:58.855584Z",
      "apogee_km": 540.4544800619597,
      "perigee_km": 538.9195532691429,
      "latitude_deg": -2.0419888640300477e-05,
      "longitude_deg": 149.56626994349557,
      "height_km": 540.2720098544089,
      "semi_major_axis_km": 6917.824016665551,
      "eccentricity": 0.00011094,
      "inclination_deg": 53.2146,
      "raan_deg": 98.9574,
      "arg_perigee_deg": 66.1024,
      "mean_anomaly_deg": 294.0084,
      "mean_motion_rev_day": 15.08858443
    },
    {
      "epoch": "2026-04-05T07:37:45.397056Z",
      "apogee_km": 540.4371325603952,
      "perigee_km": 538.9737321722532,
      "latitude_deg": -1.920590525810491e-05,
      "longitude_deg": 146.4327156735301,
      "height_km": 540.3736940514665,
      "semi_major_axis_km": 6917.842432366324,
      "eccentricity": 0.00010577,
      "inclination_deg": 53.2156,
      "raan_deg": 94.4971,
      "arg_perigee_deg": 71.8649,
      "mean_anomaly_deg": 288.2458,
      "mean_motion_rev_day": 15.08852418
    },
    {
      "epoch": "2026-04-06T04:17:46.111488Z",
      "apogee_km": 540.5107479517428,
      "perigee_km": 538.9372112933179,
      "latitude_deg": 1.9022981805127356e-05,
      "longitude_deg": -168.28379235799878,
      "height_km": 540.3724436578034,
      "semi_major_axis_km": 6917.86097962253,
      "eccentricity": 0.00011373,
      "inclination_deg": 53.2162,
      "raan_deg": 90.6323,
      "arg_perigee_deg": 71.6645,
      "mean_anomaly_deg": 288.4471,
      "mean_motion_rev_day": 15.0884635
    },
    {
      "epoch": "2026-04-07T05:43:56.132832Z",
      "apogee_km": 540.5349489648188,
      "perigee_km": 538.9201810180584,
      "latitude_deg": 1.0402411482308276e-05,
      "longitude_deg": 164.37211868671145,
      "height_km": 540.4547452175016,
      "semi_major_axis_km": 6917.864564991439,
      "eccentricity": 0.00011671,
      "inclination_deg": 53.2171,
      "raan_deg": 85.8746,
      "arg_perigee_deg": 77.9323,
      "mean_anomaly_deg": 282.18,
      "mean_motion_rev_day": 15.08845177
    },
    {
      "epoch": "2026-04-08T08:45:29.583936Z",
      "apogee_km": 540.553703739547,
      "perigee_km": 538.9318760016104,
      "latitude_deg": 2.2648064057380586e-05,
      "longitude_deg": 112.8170281506353,
      "height_km": 540.477119230704,
      "semi_major_axis_km": 6917.879789870579,
      "eccentricity": 0.00011722,
      "inclination_deg": 53.2175,
      "raan_deg": 80.8188,
      "arg_perigee_deg": 78.4995,
      "mean_anomaly_deg": 281.6129,
      "mean_motion_rev_day": 15.08840196
    },
    {
      "epoch": "2026-04-09T14:57:49.414176Z",
      "apogee_km": 540.5773316842306,
      "perigee_km": 538.9211897134201,
      "latitude_deg": -4.502925256650212e-06,
      "longitude_deg": 12.843582037855885,
      "height_km": 540.4674911056419,
      "semi_major_axis_km": 6917.886260698825,
      "eccentricity": 0.0001197,
      "inclination_deg": 53.2176,
      "raan_deg": 75.1685,
      "arg_perigee_deg": 77.6038,
      "mean_anomaly_deg": 282.5088,
      "mean_motion_rev_day": 15.08838079
    },
    {
      "epoch": "2026-04-10T06:51:41.168160Z",
      "apogee_km": 540.6460560729447,
      "perigee_km": 538.8752126365034,
      "latitude_deg": -2.5046447409644737e-05,
      "longitude_deg": 130.75202765929515,
      "height_km": 540.4954443330075,
      "semi_major_axis_km": 6917.897634354724,
      "eccentricity": 0.00012799,
      "inclination_deg": 53.2178,
      "raan_deg": 72.1955,
      "arg_perigee_deg": 79.5179,
      "mean_anomaly_deg": 280.5957,
      "mean_motion_rev_day": 15.08834358
    },
    {
      "epoch": "2026-04-11T14:39:23.957280Z",
      "apogee_km": 540.6489024871989,
      "perigee_km": 538.8710029703489,
      "latitude_deg": 2.1089184284435803e-06,
      "longitude_deg": 6.570173942099935,
      "height_km": 540.4973828640645,
      "semi_major_axis_km": 6917.896952728774,
      "eccentricity": 0.0001285,
      "inclination_deg": 53.2166,
      "raan_deg": 66.2477,
      "arg_perigee_deg": 79.7408,
      "mean_anomaly_deg": 280.3729,
      "mean_motion_rev_day": 15.08834581
    },
    {
      "epoch": "2026-04-13T06:24:02.229408Z",
      "apogee_km": 540.6819309778894,
      "perigee_km": 538.7927978464559,
      "latitude_deg": -1.733115741208237e-05,
      "longitude_deg": 121.34486470663292,
      "height_km": 540.5093867514291,
      "semi_major_axis_km": 6917.874364412172,
      "eccentricity": 0.00013654,
      "inclination_deg": 53.2173,
      "raan_deg": 58.8141,
      "arg_perigee_deg": 82.4757,
      "mean_anomaly_deg": 277.639,
      "mean_motion_rev_day": 15.08841971
    },
    {
      "epoch": "2026-04-14T14:11:44.978784Z",
      "apogee_km": 540.696969960889,
      "perigee_km": 538.7848685040126,
      "latitude_deg": 4.518882345853387e-05,
      "longitude_deg": -2.8361926841610594,
      "height_km": 540.5276894401013,
      "semi_major_axis_km": 6917.87791923245,
      "eccentricity": 0.0001382,
      "inclination_deg": 53.2175,
      "raan_deg": 52.8669,
      "arg_perigee_deg": 83.458,
      "mean_anomaly_deg": 276.657,
      "mean_motion_rev_day": 15.08840808
    },
    {
      "epoch": "2026-04-15T06:05:36.388032Z",
      "apogee_km": 540.7409543271306,
      "perigee_km": 538.7444542444737,
      "latitude_deg": 7.348099364882459e-06,
      "longitude_deg": 115.07278331075216,
      "height_km": 540.5564309070795,
      "semi_major_axis_km": 6917.879704285801,
      "eccentricity": 0.0001443,
      "inclination_deg": 53.2174,
      "raan_deg": 49.893,
      "arg_perigee_deg": 85.2956,
      "mean_anomaly_deg": 274.8201,
      "mean_motion_rev_day": 15.08840224
    },
    {
      "epoch": "2026-04-16T05:56:23.498880Z",
      "apogee_km": 540.760356228041,
      "perigee_km": 538.7278827551345,
      "latitude_deg": -7.62287583701363e-06,
      "longitude_deg": 111.93594128411021,
      "height_km": 540.5745232474728,
      "semi_major_axis_km": 6917.881119491587,
      "eccentricity": 0.0001469,
      "inclination_deg": 53.2167,
      "raan_deg": 45.4318,
      "arg_perigee_deg": 86.3281,
      "mean_anomaly_deg": 273.7879,
      "mean_motion_rev_day": 15.08839761
    },
    {
      "epoch": "2026-04-17T20:05:38.880384Z",
      "apogee_km": 540.5866531837873,
      "perigee_km": 538.8625837112368,
      "latitude_deg": 5.524752628034923e-05,
      "longitude_deg": -109.08293947735238,
      "height_km": 540.4576246338534,
      "semi_major_axis_km": 6917.861618447511,
      "eccentricity": 0.00012461,
      "inclination_deg": 53.2176,
      "raan_deg": 38.2939,
      "arg_perigee_deg": 79.1068,
      "mean_anomaly_deg": 281.0065,
      "mean_motion_rev_day": 15.08846141
    },
    {
      "epoch": "2026-04-18T11:59:30.579936Z",
      "apogee_km": 541.025340666064,
      "perigee_km": 538.5015522251915,
      "latitude_deg": 2.063400515193439e-05,
      "longitude_deg": 8.823125064602054,
      "height_km": 540.3501838834376,
      "semi_major_axis_km": 6917.9004464456275,
      "eccentricity": 0.00018241,
      "inclination_deg": 53.2184,
      "raan_deg": 35.3183,
      "arg_perigee_deg": 75.8494,
      "mean_anomaly_deg": 284.2701,
      "mean_motion_rev_day": 15.08833438
    }
  ]
}